COSMOS 2436 [GLONASS-M] 
1 32395U 07065C   22231.38857038  .00000082  00000+0  00000+0 0  9990
2 32395  64.3849 239.3358 0014767 350.6641 337.5071  2.13102928113943
NAVSTAR 62 (USA 201)    
1 32711U 08012A   22231.12596829  .00000059  00000+0  00000+0 0  9999
2 32711  54.4731 205.7028 0165669 231.7731 126.7092  2.00566914105715
NAVSTAR 64 (USA 206)    
1 35752U 09043A   22231.11090955 -.00000056  00000+0  00000+0 0  9998
2 35752  55.1187  83.0050 0059206  61.3999 301.1626  2.00552273 95320
COSMOS 2456 [GLONASS-M] 
1 36111U 09070A   22231.62243470 -.00000040  00000+0  00000+0 0  9999
2 36111  64.3670 118.8858 0003725 318.2025 218.2446  2.13099388 98688
COSMOS 2457 [GLONASS-M] 
1 36112U 09070B   22231.46425897 -.00000040  00000+0  00000+0 0  9997
2 36112  64.3505 118.7641 0004690 162.0713  20.8170  2.13101581 98686
BEIDOU 3                
1 36287U 10001A   22231.38641910 -.00000286  00000+0  00000+0 0  9995
2 36287   2.0078  49.2888 0003637  41.4231 156.5794  1.00274221 46149
COSMOS 2461 [GLONASS-M] 
1 36401U 10007B   22231.60184836 -.00000084  00000+0  00000+0 0  9999
2 36401  65.9654   1.4052 0019202  12.6367 310.8694  2.13103722 97033
COSMOS 2460 [GLONASS-M] 
1 36402U 10007C   22231.24493806 -.00000083  00000+0  00000+0 0  9999
2 36402  65.9525   1.3660 0002314 118.9123 239.8104  2.13106428 97022
NAVSTAR 65 (USA 213)    
1 36585U 10022A   22231.44875088  .00000026  00000+0  00000+0 0  9992
2 36585  54.7650 264.9742 0102706  56.8601 309.7093  2.00568596 89562
BEIDOU 5                
1 36828U 10036A   22231.54330035 -.00000122  00000+0  00000+0 0  9994
2 36828  54.2013 175.6508 0030551 190.2032 265.3703  1.00280684 44213
COSMOS 2464 [GLONASS-M] 
1 37139U 10041C   22231.54494907  .00000083  00000+0  00000+0 0  9990
2 37139  63.9752 238.3166 0027982   5.6520 164.4022  2.13100794 93099
QZS-1 (MICHIBIKI-1)     
1 37158U 10045A   22230.59795288 -.00000234  00000+0  00000+0 0  9994
2 37158  42.3959 132.5308 0764943 270.9368 275.1899  1.00241655 43718
BEIDOU 6                
1 37210U 10057A   22231.35853609 -.00000118  00000+0  00000+0 0  9994
2 37210   0.9618  53.8500 0005962 131.0658  71.8700  1.00273250 43264
BEIDOU 7                
1 37256U 10068A   22231.55671953 -.00000184  00000+0  00000+0 0  9991
2 37256  50.1014 288.8938 0023828 200.4157 146.3286  1.00287464 42776
BEIDOU 8                
1 37384U 11013A   22231.45117892 -.00000166  00000+0  00000+0 0  9990
2 37384  60.3839  53.6333 0023340 177.1180   6.4462  1.00290426 41658
GSAT-8                  
1 37605U 11022A   22230.96892316  .00000078  00000+0  00000+0 0  9993
2 37605   0.0134 122.2806 0003870 128.3217 120.5728  1.00273804 39196
NAVSTAR 66 (USA 232)    
1 37753U 11036A   22231.34242295 -.00000084  00000+0  00000+0 0  9998
2 37753  56.6345  26.2574 0118502  53.2213 320.6999  2.00565856 81245
